GLOBALSTAR M023         
1 25621U 99004A   25160.91817934 -.00000013  00000+0  50806-3 0  9990
2 25621  52.0114  75.5745 0009920 106.1886 331.2484 12.62507903214810
GLOBALSTAR M040         
1 25622U 99004B   25160.97070580 -.00000137  00000+0 -18766-3 0  9992
2 25622  51.9924  79.5588 0001401  30.7707  50.1951 12.62011137214340
GLOBALSTAR M036         
1 25623U 99004C   25159.72408913 -.00000005  00000+0  11373-2 0  9998
2 25623  51.9970 262.6303 0011040  39.5020 113.7843 11.86603317177972
GLOBALSTAR M038         
1 25624U 99004D   25160.96295970 -.00000101  00000+0 -51012-4 0  9998
2 25624  51.9972  92.3753 0002372  37.6130  39.6138 12.32528112201489
GLOBALSTAR M022         
1 25649U 99012A   25159.75098189 -.00000087  00000+0 -28171-5 0  9996
2 25649  52.0055 313.8352 0003161 147.7082 225.9634 12.02500248175367
GLOBALSTAR M041         
1 25650U 99012B   25160.53374294 -.00000037  00000+0  62528-3 0  9996
2 25650  51.9989 192.9286 0001605 295.9711  64.0959 11.96680665177369
GLOBALSTAR M046         
1 25651U 99012C   25160.76459760 -.00000029  00000+0  65706-3 0  9996
2 25651  52.0048 261.4852 0002122 224.1799 300.6374 12.09408074182761
GLOBALSTAR M037         
1 25652U 99012D   25160.67502229 -.00000036  00000+0  37835-3 0  9996
2 25652  51.9983 206.9399 0002271 172.4915 337.2249 12.62446267210324
