<?xml version="1.0" encoding="UTF-8"?>
<ndm xmlns:xsi="http://www.w3.org/2001/XMLSchema-instance" xsi:noNamespaceSchemaLocation="https://sanaregistry.org/r/ndmxml_unqualified/ndmxml-2.0.0-master-2.0.xsd">
<omm id="CCSDS_OMM_VERS" version="2.0">
<header><CREATION_DATE/><ORIGINATOR/></header><body><segment><metadata><OBJECT_NAME>GLOBALSTAR M023</OBJECT_NAME><OBJECT_ID>1999-004A</OBJECT_ID><CENTER_NAME>EARTH</CENTER_NAME><REF_FRAME>TEME</REF_FRAME><TIME_SYSTEM>UTC</TIME_SYSTEM><MEAN_ELEMENT_THEORY>SGP4</MEAN_ELEMENT_THEORY></metadata><data><meanElements><EPOCH>2025-06-09T22:02:10.694976</EPOCH><MEAN_MOTION>12.62507903</MEAN_MOTION><ECCENTRICITY>.000992</ECCENTRICITY><INCLINATION>52.0114</INCLINATION><RA_OF_ASC_NODE>75.5745</RA_OF_ASC_NODE><ARG_OF_PERICENTER>106.1886</ARG_OF_PERICENTER><MEAN_ANOMALY>331.2484</MEAN_ANOMALY></meanElements><tleParameters><EPHEMERIS_TYPE>0</EPHEMERIS_TYPE><CLASSIFICATION_TYPE>U</CLASSIFICATION_TYPE><NORAD_CAT_ID>25621</NORAD_CAT_ID><ELEMENT_SET_NO>999</ELEMENT_SET_NO><REV_AT_EPOCH>21481</REV_AT_EPOCH><BSTAR>.50806E-3</BSTAR><MEAN_MOTION_DOT>-.13E-6</MEAN_MOTION_DOT><MEAN_MOTION_DDOT>0</MEAN_MOTION_DDOT></tleParameters></data></segment></body></omm>
<omm id="CCSDS_OMM_VERS" version="2.0">
<header><CREATION_DATE/><ORIGINATOR/></header><body><segment><metadata><OBJECT_NAME>GLOBALSTAR M040</OBJECT_NAME><OBJECT_ID>1999-004B</OBJECT_ID><CENTER_NAME>EARTH</CENTER_NAME><REF_FRAME>TEME</REF_FRAME><TIME_SYSTEM>UTC</TIME_SYSTEM><MEAN_ELEMENT_THEORY>SGP4</MEAN_ELEMENT_THEORY></metadata><data><meanElements><EPOCH>2025-06-09T23:17:48.981120</EPOCH><MEAN_MOTION>12.62011137</MEAN_MOTION><ECCENTRICITY>.0001401</ECCENTRICITY><INCLINATION>51.9924</INCLINATION><RA_OF_ASC_NODE>79.5588</RA_OF_ASC_NODE><ARG_OF_PERICENTER>30.7707</ARG_OF_PERICENTER><MEAN_ANOMALY>50.1951</MEAN_ANOMALY></meanElements><tleParameters><EPHEMERIS_TYPE>0</EPHEMERIS_TYPE><CLASSIFICATION_TYPE>U</CLASSIFICATION_TYPE><NORAD_CAT_ID>25622</NORAD_CAT_ID><ELEMENT_SET_NO>999</ELEMENT_SET_NO><REV_AT_EPOCH>21434</REV_AT_EPOCH><BSTAR>-.18766E-3</BSTAR><MEAN_MOTION_DOT>-.137E-5</MEAN_MOTION_DOT><MEAN_MOTION_DDOT>0</MEAN_MOTION_DDOT></tleParameters></data></segment></body></omm>
<omm id="CCSDS_OMM_VERS" version="2.0">
<header><CREATION_DATE/><ORIGINATOR/></header><body><segment><metadata><OBJECT_NAME>GLOBALSTAR M036</OBJECT_NAME><OBJECT_ID>1999-004C</OBJECT_ID><CENTER_NAME>EARTH</CENTER_NAME><REF_FRAME>TEME</REF_FRAME><TIME_SYSTEM>UTC</TIME_SYSTEM><MEAN_ELEMENT_THEORY>SGP4</MEAN_ELEMENT_THEORY></metadata><data><meanElements><EPOCH>2025-06-08T17:22:41.300832</EPOCH><MEAN_MOTION>11.86603317</MEAN_MOTION><ECCENTRICITY>.001104</ECCENTRICITY><INCLINATION>51.9970</INCLINATION><RA_OF_ASC_NODE>262.6303</RA_OF_ASC_NODE><ARG_OF_PERICENTER>39.5020</ARG_OF_PERICENTER><MEAN_ANOMALY>113.7843</MEAN_ANOMALY></meanElements><tleParameters><EPHEMERIS_TYPE>0</EPHEMERIS_TYPE><CLASSIFICATION_TYPE>U</CLASSIFICATION_TYPE><NORAD_CAT_ID>25623</NORAD_CAT_ID><ELEMENT_SET_NO>999</ELEMENT_SET_NO><REV_AT_EPOCH>17797</REV_AT_EPOCH><BSTAR>.11373E-2</BSTAR><MEAN_MOTION_DOT>-.5E-7</MEAN_MOTION_DOT><MEAN_MOTION_DDOT>0</MEAN_MOTION_DDOT></tleParameters></data></segment></body></omm>
<omm id="CCSDS_OMM_VERS" version="2.0">
<header><CREATION_DATE/><ORIGINATOR/></header><body><segment><metadata><OBJECT_NAME>GLOBALSTAR M038</OBJECT_NAME><OBJECT_ID>1999-004D</OBJECT_ID><CENTER_NAME>EARTH</CENTER_NAME><REF_FRAME>TEME</REF_FRAME><TIME_SYSTEM>UTC</TIME_SYSTEM><MEAN_ELEMENT_THEORY>SGP4</MEAN_ELEMENT_THEORY></metadata><data><meanElements><EPOCH>2025-06-09T23:06:39.718080</EPOCH><MEAN_MOTION>12.32528112</MEAN_MOTION><ECCENTRICITY>.0002372</ECCENTRICITY><INCLINATION>51.9972</INCLINATION><RA_OF_ASC_NODE>92.3753</RA_OF_ASC_NODE><ARG_OF_PERICENTER>37.6130</ARG_OF_PERICENTER><MEAN_ANOMALY>39.6138</MEAN_ANOMALY></meanElements><tleParameters><EPHEMERIS_TYPE>0</EPHEMERIS_TYPE><CLASSIFICATION_TYPE>U</CLASSIFICATION_TYPE><NORAD_CAT_ID>25624</NORAD_CAT_ID><ELEMENT_SET_NO>999</ELEMENT_SET_NO><REV_AT_EPOCH>20148</REV_AT_EPOCH><BSTAR>-.51012E-4</BSTAR><MEAN_MOTION_DOT>-.101E-5</MEAN_MOTION_DOT><MEAN_MOTION_DDOT>0</MEAN_MOTION_DDOT></tleParameters></data></segment></body></omm>
<omm id="CCSDS_OMM_VERS" version="2.0">
<header><CREATION_DATE/><ORIGINATOR/></header><body><segment><metadata><OBJECT_NAME>GLOBALSTAR M022</OBJECT_NAME><OBJECT_ID>1999-012A</OBJECT_ID><CENTER_NAME>EARTH</CENTER_NAME><REF_FRAME>TEME</REF_FRAME><TIME_SYSTEM>UTC</TIME_SYSTEM><MEAN_ELEMENT_THEORY>SGP4</MEAN_ELEMENT_THEORY></metadata><data><meanElements><EPOCH>2025-06-08T18:01:24.835296</EPOCH><MEAN_MOTION>12.02500248</MEAN_MOTION><ECCENTRICITY>.0003161</ECCENTRICITY><INCLINATION>52.0055</INCLINATION><RA_OF_ASC_NODE>313.8352</RA_OF_ASC_NODE><ARG_OF_PERICENTER>147.7082</ARG_OF_PERICENTER><MEAN_ANOMALY>225.9634</MEAN_ANOMALY></meanElements><tleParameters><EPHEMERIS_TYPE>0</EPHEMERIS_TYPE><CLASSIFICATION_TYPE>U</CLASSIFICATION_TYPE><NORAD_CAT_ID>25649</NORAD_CAT_ID><ELEMENT_SET_NO>999</ELEMENT_SET_NO><REV_AT_EPOCH>17536</REV_AT_EPOCH><BSTAR>-.28171E-5</BSTAR><MEAN_MOTION_DOT>-.87E-6</MEAN_MOTION_DOT><MEAN_MOTION_DDOT>0</MEAN_MOTION_DDOT></tleParameters></data></segment></body></omm>
<omm id="CCSDS_OMM_VERS" version="2.0">
<header><CREATION_DATE/><ORIGINATOR/></header><body><segment><metadata><OBJECT_NAME>GLOBALSTAR M041</OBJECT_NAME><OBJECT_ID>1999-012B</OBJECT_ID><CENTER_NAME>EARTH</CENTER_NAME><REF_FRAME>TEME</REF_FRAME><TIME_SYSTEM>UTC</TIME_SYSTEM><MEAN_ELEMENT_THEORY>SGP4</MEAN_ELEMENT_THEORY></metadata><data><meanElements><EPOCH>2025-06-09T12:48:35.390016</EPOCH><MEAN_MOTION>11.96680665</MEAN_MOTION><ECCENTRICITY>.0001605</ECCENTRICITY><INCLINATION>51.9989</INCLINATION><RA_OF_ASC_NODE>192.9286</RA_OF_ASC_NODE><ARG_OF_PERICENTER>295.9711</ARG_OF_PERICENTER><MEAN_ANOMALY>64.0959</MEAN_ANOMALY></meanElements><tleParameters><EPHEMERIS_TYPE>0</EPHEMERIS_TYPE><CLASSIFICATION_TYPE>U</CLASSIFICATION_TYPE><NORAD_CAT_ID>25650</NORAD_CAT_ID><ELEMENT_SET_NO>999</ELEMENT_SET_NO><REV_AT_EPOCH>17736</REV_AT_EPOCH><BSTAR>.62528E-3</BSTAR><MEAN_MOTION_DOT>-.37E-6</MEAN_MOTION_DOT><MEAN_MOTION_DDOT>0</MEAN_MOTION_DDOT></tleParameters></data></segment></body></omm>
<omm id="CCSDS_OMM_VERS" version="2.0">
<header><CREATION_DATE/><ORIGINATOR/></header><body><segment><metadata><OBJECT_NAME>GLOBALSTAR M046</OBJECT_NAME><OBJECT_ID>1999-012C</OBJECT_ID><CENTER_NAME>EARTH</CENTER_NAME><REF_FRAME>TEME</REF_FRAME><TIME_SYSTEM>UTC</TIME_SYSTEM><MEAN_ELEMENT_THEORY>SGP4</MEAN_ELEMENT_THEORY></metadata><data><meanElements><EPOCH>2025-06-09T18:21:01.232640</EPOCH><MEAN_MOTION>12.09408074</MEAN_MOTION><ECCENTRICITY>.0002122</ECCENTRICITY><INCLINATION>52.0048</INCLINATION><RA_OF_ASC_NODE>261.4852</RA_OF_ASC_NODE><ARG_OF_PERICENTER>224.1799</ARG_OF_PERICENTER><MEAN_ANOMALY>300.6374</MEAN_ANOMALY></meanElements><tleParameters><EPHEMERIS_TYPE>0</EPHEMERIS_TYPE><CLASSIFICATION_TYPE>U</CLASSIFICATION_TYPE><NORAD_CAT_ID>25651</NORAD_CAT_ID><ELEMENT_SET_NO>999</ELEMENT_SET_NO><REV_AT_EPOCH>18276</REV_AT_EPOCH><BSTAR>.65706E-3</BSTAR><MEAN_MOTION_DOT>-.29E-6</MEAN_MOTION_DOT><MEAN_MOTION_DDOT>0</MEAN_MOTION_DDOT></tleParameters></data></segment></body></omm>
<omm id="CCSDS_OMM_VERS" version="2.0">
<header><CREATION_DATE/><ORIGINATOR/></header><body><segment><metadata><OBJECT_NAME>GLOBALSTAR M037</OBJECT_NAME><OBJECT_ID>1999-012D</OBJECT_ID><CENTER_NAME>EARTH</CENTER_NAME><REF_FRAME>TEME</REF_FRAME><TIME_SYSTEM>UTC</TIME_SYSTEM><MEAN_ELEMENT_THEORY>SGP4</MEAN_ELEMENT_THEORY></metadata><data><meanElements><EPOCH>2025-06-09T16:12:01.925856</EPOCH><MEAN_MOTION>12.62446267</MEAN_MOTION><ECCENTRICITY>.0002271</ECCENTRICITY><INCLINATION>51.9983</INCLINATION><RA_OF_ASC_NODE>206.9399</RA_OF_ASC_NODE><ARG_OF_PERICENTER>172.4915</ARG_OF_PERICENTER><MEAN_ANOMALY>337.2249</MEAN_ANOMALY></meanElements><tleParameters><EPHEMERIS_TYPE>0</EPHEMERIS_TYPE><CLASSIFICATION_TYPE>U</CLASSIFICATION_TYPE><NORAD_CAT_ID>25652</NORAD_CAT_ID><ELEMENT_SET_NO>999</ELEMENT_SET_NO><REV_AT_EPOCH>21032</REV_AT_EPOCH><BSTAR>.37835E-3</BSTAR><MEAN_MOTION_DOT>-.36E-6</MEAN_MOTION_DOT><MEAN_MOTION_DDOT>0</MEAN_MOTION_DDOT></tleParameters></data></segment></body></omm>

</ndm>
